{
  "norad_id": 54195,
  "name": "STARLINK-5258",
  "history": [
    {
      "epoch": "2026-04-16T11:48:50.483808Z",
      "apogee_km": 540.5719971102872,
      "perigee_km": 539.1482732998629,
      "latitude_deg": 2.2613130845948525e-06,
      "longitude_deg": 162.65046861526517,
      "height_km": 540.9184787996073,
      "semi_major_axis_km": 6917.997135205075,
      "eccentricity": 0.0001029,
      "inclination_deg": 53.2175,
      "raan_deg": 184.5,
      "arg_perigee_deg": 103.1672,
      "mean_anomaly_deg": 256.9435,
      "mean_motion_rev_day": 15.08801806
    },
    {
      "epoch": "2026-04-17T21:11:55.098240Z",
      "apogee_km": 540.4399633492985,
      "perigee_km": 539.0402001005832,
      "latitude_deg": 5.43573621211761e-05,
      "longitude_deg": 14.264225108196914,
      "height_km": 540.5587330296457,
      "semi_major_axis_km": 6917.877081724941,
      "eccentricity": 0.00010117,
      "inclination_deg": 53.2169,
      "raan_deg": 178.254,
      "arg_perigee_deg": 83.6442,
      "mean_anomaly_deg": 276.4666,
      "mean_motion_rev_day": 15.08841082
    },
    {
      "epoch": "2026-04-18T11:30:23.576256Z",
      "apogee_km": 540.492268107977,
      "perigee_km": 539.0226306111554,
      "latitude_deg": -2.9596563498366752e-05,
      "longitude_deg": 156.38219940966013,
      "height_km": 540.589716407439,
      "semi_major_axis_km": 6917.894449359566,
      "eccentricity": 0.00010622,
      "inclination_deg": 53.217,
      "raan_deg": 175.5783,
      "arg_perigee_deg": 85.0181,
      "mean_anomaly_deg": 275.0932,
      "mean_motion_rev_day": 15.088354
    },
    {
      "epoch": "2026-04-19T12:56:34.700928Z",
      "apogee_km": 540.7323713448386,
      "perigee_km": 538.875595984824,
      "latitude_deg": -2.4202949998746417e-05,
      "longitude_deg": 129.0317131429306,
      "height_km": 540.5014942050802,
      "semi_major_axis_km": 6917.940983664831,
      "eccentricity": 0.0001342,
      "inclination_deg": 53.2168,
      "raan_deg": 170.8188,
      "arg_perigee_deg": 77.6732,
      "mean_anomaly_deg": 282.441,
      "mean_motion_rev_day": 15.08820176
    },
    {
      "epoch": "2026-04-20T09:36:34.871040Z",
      "apogee_km": 540.508805341914,
      "perigee_km": 538.9990448264234,
      "latitude_deg": 2.0124541639246437e-05,
      "longitude_deg": 174.3181840554717,
      "height_km": 540.5377669199225,
      "semi_major_axis_km": 6917.890925084168,
      "eccentricity": 0.00010912,
      "inclination_deg": 53.2171,
      "raan_deg": 166.9547,
      "arg_perigee_deg": 81.4512,
      "mean_anomaly_deg": 278.6604,
      "mean_motion_rev_day": 15.08836553
    },
    {
      "epoch": "2026-04-21T20:35:03.653952Z",
      "apogee_km": 540.4607566686454,
      "perigee_km": 539.0232214147227,
      "latitude_deg": -6.706828738153303e-06,
      "longitude_deg": 1.7198734076280062,
      "height_km": 540.5414998546308,
      "semi_major_axis_km": 6917.878989041684,
      "eccentricity": 0.0001039,
      "inclination_deg": 53.2171,
      "raan_deg": 160.4127,
      "arg_perigee_deg": 82.2749,
      "mean_anomaly_deg": 277.8361,
      "mean_motion_rev_day": 15.08840458
    },
    {
      "epoch": "2026-04-22T02:56:36.256704Z",
      "apogee_km": 540.4512273035116,
      "perigee_km": 539.041639375133,
      "latitude_deg": 1.2704212830463659e-05,
      "longitude_deg": -95.11641479355684,
      "height_km": 540.5502547082792,
      "semi_major_axis_km": 6917.8834333393215,
      "eccentricity": 0.00010188,
      "inclination_deg": 53.217,
      "raan_deg": 159.2234,
      "arg_perigee_deg": 82.4734,
      "mean_anomaly_deg": 277.6374,
      "mean_motion_rev_day": 15.08839004
    },
    {
      "epoch": "2026-04-23T07:33:32.790240Z",
      "apogee_km": 540.4847998570212,
      "perigee_km": 538.9998078856515,
      "latitude_deg": 3.8509254803915604e-05,
      "longitude_deg": -170.87975989275245,
      "height_km": 540.5201800941007,
      "semi_major_axis_km": 6917.879303871336,
      "eccentricity": 0.00010733,
      "inclination_deg": 53.2173,
      "raan_deg": 153.8708,
      "arg_perigee_deg": 80.8379,
      "mean_anomaly_deg": 279.2735,
      "mean_motion_rev_day": 15.08840355
    },
    {
      "epoch": "2026-04-24T08:59:43.194336Z",
      "apogee_km": 540.4390763179154,
      "perigee_km": 539.0665669773016,
      "latitude_deg": -9.987825202139005e-06,
      "longitude_deg": 161.7740235190517,
      "height_km": 540.5329155971242,
      "semi_major_axis_km": 6917.889821647608,
      "eccentricity": 9.92e-05,
      "inclination_deg": 53.2162,
      "raan_deg": 149.1126,
      "arg_perigee_deg": 80.2678,
      "mean_anomaly_deg": 279.8426,
      "mean_motion_rev_day": 15.08836914
    },
    {
      "epoch": "2026-04-25T18:22:52.006944Z",
      "apogee_km": 540.5810985492599,
      "perigee_km": 539.1144857733216,
      "latitude_deg": -3.201559859754447e-05,
      "longitude_deg": 13.370882014328737,
      "height_km": 540.5142764662443,
      "semi_major_axis_km": 6917.984792161291,
      "eccentricity": 0.000106,
      "inclination_deg": 53.2153,
      "raan_deg": 142.8673,
      "arg_perigee_deg": 71.764,
      "mean_anomaly_deg": 288.3467,
      "mean_motion_rev_day": 15.08805844
    },
    {
      "epoch": "2026-04-26T10:16:41.961216Z",
      "apogee_km": 540.4861106792368,
      "perigee_km": 539.0534121889441,
      "latitude_deg": -5.014509867001695e-05,
      "longitude_deg": 131.28605076228652,
      "height_km": 540.6318252443217,
      "semi_major_axis_km": 6917.90676143409,
      "eccentricity": 0.00010355,
      "inclination_deg": 53.2156,
      "raan_deg": 139.8935,
      "arg_perigee_deg": 87.2876,
      "mean_anomaly_deg": 272.8234,
      "mean_motion_rev_day": 15.08831372
    },
    {
      "epoch": "2026-04-27T18:04:22.740672Z",
      "apogee_km": 540.3223906025505,
      "perigee_km": 539.0301430843047,
      "latitude_deg": -2.9023255292742336e-05,
      "longitude_deg": 7.112392676563606,
      "height_km": 540.4269703567774,
      "semi_major_axis_km": 6917.813266843427,
      "eccentricity": 9.34e-05,
      "inclination_deg": 53.2153,
      "raan_deg": 133.9455,
      "arg_perigee_deg": 76.9947,
      "mean_anomaly_deg": 283.1149,
      "mean_motion_rev_day": 15.0886196
    },
    {
      "epoch": "2026-04-28T17:55:10.953984Z",
      "apogee_km": 540.4539622629409,
      "perigee_km": 538.9873764370386,
      "latitude_deg": 3.368361991866787e-05,
      "longitude_deg": 3.9722010014267286,
      "height_km": 540.6238558198614,
      "semi_major_axis_km": 6917.85766934999,
      "eccentricity": 0.000106,
      "inclination_deg": 53.2162,
      "raan_deg": 129.4855,
      "arg_perigee_deg": 90.5626,
      "mean_anomaly_deg": 269.5488,
      "mean_motion_rev_day": 15.08847433
    },
    {
      "epoch": "2026-04-29T08:13:39.196992Z",
      "apogee_km": 540.4046789357981,
      "perigee_km": 538.9885983899649,
      "latitude_deg": 4.7906772766749725e-05,
      "longitude_deg": 146.09113031779896,
      "height_km": 540.5886979290428,
      "semi_major_axis_km": 6917.833638662882,
      "eccentricity": 0.00010235,
      "inclination_deg": 53.2163,
      "raan_deg": 126.8097,
      "arg_perigee_deg": 89.6773,
      "mean_anomaly_deg": 270.4337,
      "mean_motion_rev_day": 15.08855295
    },
    {
      "epoch": "2026-04-30T06:29:02.726880Z",
      "apogee_km": 540.452116355098,
      "perigee_km": 539.0076657482468,
      "latitude_deg": 3.028918391225807e-05,
      "longitude_deg": 167.1660326015289,
      "height_km": 540.5935249869866,
      "semi_major_axis_km": 6917.866891051673,
      "eccentricity": 0.0001044,
      "inclination_deg": 53.2163,
      "raan_deg": 122.6467,
      "arg_perigee_deg": 87.4299,
      "mean_anomaly_deg": 272.6813,
      "mean_motion_rev_day": 15.08844416
    },
    {
      "epoch": "2026-05-02T09:21:23.281920Z",
      "apogee_km": 540.5022201901493,
      "perigee_km": 538.9968880759689,
      "latitude_deg": 2.2826090085229452e-05,
      "longitude_deg": 112.47472423639442,
      "height_km": 540.6190555363008,
      "semi_major_axis_km": 6917.886554133059,
      "eccentricity": 0.0001088,
      "inclination_deg": 53.217,
      "raan_deg": 113.1303,
      "arg_perigee_deg": 87.9799,
      "mean_anomaly_deg": 272.1318,
      "mean_motion_rev_day": 15.08837983
    },
    {
      "epoch": "2026-05-03T15:33:42.254208Z",
      "apogee_km": 540.4481708216254,
      "perigee_km": 539.0023376104955,
      "latitude_deg": 3.512169874669597e-05,
      "longitude_deg": 12.50449250433838,
      "height_km": 540.5156176605423,
      "semi_major_axis_km": 6917.86225421606,
      "eccentricity": 0.0001045,
      "inclination_deg": 53.2172,
      "raan_deg": 107.4796,
      "arg_perigee_deg": 81.5872,
      "mean_anomaly_deg": 278.5239,
      "mean_motion_rev_day": 15.08845933
    },
    {
      "epoch": "2026-05-04T15:24:30.367296Z",
      "apogee_km": 540.6060429170566,
      "perigee_km": 538.9498940736003,
      "latitude_deg": -7.122064493491136e-05,
      "longitude_deg": 9.365189793928698,
      "height_km": 540.6115588452833,
      "semi_major_axis_km": 6917.914968495328,
      "eccentricity": 0.0001197,
      "inclination_deg": 53.2171,
      "raan_deg": 103.0202,
      "arg_perigee_deg": 85.6839,
      "mean_anomaly_deg": 274.4289,
      "mean_motion_rev_day": 15.08828687
    },
    {
      "epoch": "2026-05-05T15:15:17.772768Z",
      "apogee_km": 540.6563861922123,
      "perigee_km": 538.892318797326,
      "latitude_deg": 2.4239185453421947e-05,
      "longitude_deg": 6.227993222398528,
      "height_km": 540.5961652188538,
      "semi_major_axis_km": 6917.911352494769,
      "eccentricity": 0.0001275,
      "inclination_deg": 53.2176,
      "raan_deg": 98.5598,
      "arg_perigee_deg": 85.1853,
      "mean_anomaly_deg": 274.9285,
      "mean_motion_rev_day": 15.0882987
    }
  ]
}